<?xml version="1.0" encoding="UTF-8"?>
<gpx version="1.1" creator="wanderer-corpus" xmlns="http://www.topografix.com/GPX/1/1">
  <metadata>
    <name>Jittery Track</name>
  </metadata>
  <trk>
    <trkseg>
      <trkpt lat="47" lon="11"></trkpt>
      <trkpt lat="47.00018" lon="11"></trkpt>
      <trkpt lat="47.000189" lon="11"></trkpt>
      <trkpt lat="47.00018" lon="11"></trkpt>
      <trkpt lat="47.00036" lon="11"></trkpt>
      <trkpt lat="47.000369" lon="11"></trkpt>
      <trkpt lat="47.00036" lon="11"></trkpt>
      <trkpt lat="47.00054" lon="11"></trkpt>
      <trkpt lat="47.000549" lon="11"></trkpt>
      <trkpt lat="47.00054" lon="11"></trkpt>
      <trkpt lat="47.00072" lon="11"></trkpt>
      <trkpt lat="47.000729" lon="11"></trkpt>
      <trkpt lat="47.00072" lon="11"></trkpt>
      <trkpt lat="47.0009" lon="11"></trkpt>
      <trkpt lat="47.000909" lon="11"></trkpt>
      <trkpt lat="47.0009" lon="11"></trkpt>
    </trkseg>
  </trk>
</gpx>
