<?xml version="1.0" encoding="UTF-8"?>
<gpx version="1.1" creator="wanderer-corpus" xmlns="http://www.topografix.com/GPX/1/1">
  <metadata>
    <name>Switchback Scramble</name>
  </metadata>
  <trk>
    <trkseg>
      <trkpt lat="47" lon="11.0"><ele>1000</ele></trkpt>
      <trkpt lat="47.0000036" lon="11.0"><ele>1008</ele></trkpt>
      <trkpt lat="47.0000072" lon="11.0"><ele>1016</ele></trkpt>
      <trkpt lat="47.0000108" lon="11.0"><ele>1024</ele></trkpt>
      <trkpt lat="47.0000144" lon="11.0"><ele>1032</ele></trkpt>
      <trkpt lat="47.000018" lon="11.0"><ele>1040</ele></trkpt>
      <trkpt lat="47.0000216" lon="11.0"><ele>1048</ele></trkpt>
      <trkpt lat="47.0000252" lon="11.0"><ele>1056</ele></trkpt>
      <trkpt lat="47.0000288" lon="11.0"><ele>1064</ele></trkpt>
      <trkpt lat="47.0000324" lon="11.0"><ele>1072</ele></trkpt>
      <trkpt lat="47.000036" lon="11.0"><ele>1080</ele></trkpt>
      <trkpt lat="47.0000396" lon="11.0"><ele>1088</ele></trkpt>
    </trkseg>
  </trk>
</gpx>
