<?xml version="1.0" encoding="UTF-8"?>
<gpx version="1.1" creator="wanderer-corpus" xmlns="http://www.topografix.com/GPX/1/1">
  <metadata>
    <name>Multi Segment Planner Route</name>
  </metadata>
  <trk>
    <trkseg>
      <trkpt lat="47.0" lon="11.0"></trkpt>
      <trkpt lat="47.001" lon="11.0"></trkpt>
      <trkpt lat="47.002" lon="11.0"></trkpt>
    </trkseg>
    <trkseg>
      <trkpt lat="47.002" lon="11.0"></trkpt>
      <trkpt lat="47.003" lon="11.0"></trkpt>
      <trkpt lat="47.004" lon="11.0"></trkpt>
    </trkseg>
  </trk>
</gpx>
