<?xml version="1.0" encoding="UTF-8"?>
<gpx version="1.1" creator="wanderer-corpus" xmlns="http://www.topografix.com/GPX/1/1">
  <metadata>
    <name>Missing vs Empty Elevation</name>
  </metadata>
  <trk>
    <trkseg>
      <trkpt lat="47.000" lon="11.0"><ele>1000</ele></trkpt>
      <trkpt lat="47.001" lon="11.0"><ele>1005</ele></trkpt>
      <trkpt lat="47.002" lon="11.0"><ele></ele></trkpt>
      <trkpt lat="47.003" lon="11.0"><ele>1010</ele></trkpt>
      <trkpt lat="47.004" lon="11.0"><ele>1015</ele></trkpt>
    </trkseg>
  </trk>
</gpx>
