<?xml version="1.0" encoding="UTF-8"?>
<gpx version="1.1" creator="wanderer-corpus" xmlns="http://www.topografix.com/GPX/1/1">
  <metadata>
    <name>Stationary Noise Returns</name>
  </metadata>
  <trk>
    <trkseg>
      <trkpt lat="47.0" lon="11.0"><ele>1000</ele></trkpt>
      <trkpt lat="47.0" lon="11.0"><ele>1007</ele></trkpt>
      <trkpt lat="47.0" lon="11.0"><ele>1000</ele></trkpt>
      <trkpt lat="47.0" lon="11.0"><ele>1007</ele></trkpt>
      <trkpt lat="47.0" lon="11.0"><ele>1000</ele></trkpt>
      <trkpt lat="47.0" lon="11.0"><ele>1007</ele></trkpt>
      <trkpt lat="47.0" lon="11.0"><ele>1000</ele></trkpt>
      <trkpt lat="47.0" lon="11.0"><ele>1007</ele></trkpt>
      <trkpt lat="47.0" lon="11.0"><ele>1000</ele></trkpt>
      <trkpt lat="47.0" lon="11.0"><ele>1007</ele></trkpt>
      <trkpt lat="47.0" lon="11.0"><ele>1000</ele></trkpt>
      <trkpt lat="47.0" lon="11.0"><ele>1007</ele></trkpt>
      <trkpt lat="47.0" lon="11.0"><ele>1000</ele></trkpt>
      <trkpt lat="47.0" lon="11.0"><ele>1007</ele></trkpt>
      <trkpt lat="47.0" lon="11.0"><ele>1000</ele></trkpt>
      <trkpt lat="47.0" lon="11.0"><ele>1007</ele></trkpt>
      <trkpt lat="47.0" lon="11.0"><ele>1000</ele></trkpt>
      <trkpt lat="47.0" lon="11.0"><ele>1007</ele></trkpt>
      <trkpt lat="47.0" lon="11.0"><ele>1000</ele></trkpt>
      <trkpt lat="47.0" lon="11.0"><ele>1007</ele></trkpt>
      <trkpt lat="47.0" lon="11.0"><ele>1000</ele></trkpt>
      <trkpt lat="47.0" lon="11.0"><ele>1007</ele></trkpt>
      <trkpt lat="47.0" lon="11.0"><ele>1000</ele></trkpt>
      <trkpt lat="47.0" lon="11.0"><ele>1007</ele></trkpt>
      <trkpt lat="47.0" lon="11.0"><ele>1000</ele></trkpt>
      <trkpt lat="47.0" lon="11.0"><ele>1007</ele></trkpt>
      <trkpt lat="47.0" lon="11.0"><ele>1000</ele></trkpt>
      <trkpt lat="47.0" lon="11.0"><ele>1007</ele></trkpt>
      <trkpt lat="47.0" lon="11.0"><ele>1000</ele></trkpt>
      <trkpt lat="47.0" lon="11.0"><ele>1007</ele></trkpt>
      <trkpt lat="47.0" lon="11.0"><ele>1000</ele></trkpt>
      <trkpt lat="47.0" lon="11.0"><ele>1007</ele></trkpt>
      <trkpt lat="47.0" lon="11.0"><ele>1000</ele></trkpt>
      <trkpt lat="47.0" lon="11.0"><ele>1007</ele></trkpt>
      <trkpt lat="47.0" lon="11.0"><ele>1000</ele></trkpt>
      <trkpt lat="47.0" lon="11.0"><ele>1007</ele></trkpt>
      <trkpt lat="47.0" lon="11.0"><ele>1000</ele></trkpt>
      <trkpt lat="47.0" lon="11.0"><ele>1007</ele></trkpt>
      <trkpt lat="47.0" lon="11.0"><ele>1000</ele></trkpt>
      <trkpt lat="47.0" lon="11.0"><ele>1007</ele></trkpt>
      <trkpt lat="47.0" lon="11.0"><ele>1000</ele></trkpt>
      <trkpt lat="47.0" lon="11.0"><ele>1007</ele></trkpt>
      <trkpt lat="47.0" lon="11.0"><ele>1000</ele></trkpt>
      <trkpt lat="47.0" lon="11.0"><ele>1007</ele></trkpt>
      <trkpt lat="47.0" lon="11.0"><ele>1000</ele></trkpt>
      <trkpt lat="47.0" lon="11.0"><ele>1007</ele></trkpt>
      <trkpt lat="47.0" lon="11.0"><ele>1000</ele></trkpt>
      <trkpt lat="47.0" lon="11.0"><ele>1007</ele></trkpt>
      <trkpt lat="47.0" lon="11.0"><ele>1000</ele></trkpt>
      <trkpt lat="47.0" lon="11.0"><ele>1007</ele></trkpt>
      <trkpt lat="47.0" lon="11.0"><ele>1000</ele></trkpt>
      <trkpt lat="47.0" lon="11.0"><ele>1007</ele></trkpt>
      <trkpt lat="47.0" lon="11.0"><ele>1000</ele></trkpt>
      <trkpt lat="47.0" lon="11.0"><ele>1007</ele></trkpt>
      <trkpt lat="47.0" lon="11.0"><ele>1000</ele></trkpt>
      <trkpt lat="47.0" lon="11.0"><ele>1007</ele></trkpt>
      <trkpt lat="47.0" lon="11.0"><ele>1000</ele></trkpt>
      <trkpt lat="47.0" lon="11.0"><ele>1007</ele></trkpt>
      <trkpt lat="47.0" lon="11.0"><ele>1000</ele></trkpt>
      <trkpt lat="47.0" lon="11.0"><ele>1007</ele></trkpt>
      <trkpt lat="47.0" lon="11.0"><ele>1000</ele></trkpt>
    </trkseg>
  </trk>
</gpx>
